{
  "type": "FeatureCollection",
  "features": [
    {
      "type": "Feature",
      "properties": {
        "norad_id": 30480,
        "name": "FENGYUN 1C DEB",
        "group": "fengyun-1c-debris",
        "lat": -81.71082008300571,
        "lon": 81.9824291758493,
        "alt_km": 839.7991968385159,
        "timestamp": "2025-12-09T23:33:24.131314+00:00",
        "meta_object_name": "FENGYUN 1C DEB",
        "meta_object_id": "1999-025AGS",
        "meta_epoch": "2025-12-09T07:19:29.115840",
        "meta_mean_motion": 14.3359289,
        "meta_eccentricity": 0.01662,
        "meta_inclination": 98.2239,
        "meta_ra_of_asc_node": 358.2877,
        "meta_arg_of_pericenter": 155.8754,
        "meta_mean_anomaly": 224.9396,
        "meta_ephemeris_type": 0,
        "meta_classification_type": "U",
        "meta_norad_cat_id": 30480,
        "meta_element_set_no": 999,
        "meta_rev_at_epoch": 98619,
        "meta_bstar": 0.00035956,
        "meta_mean_motion_dot": 1.118e-05,
        "meta_mean_motion_ddot": 0,
        "tle_line1": "1 30480U 99025AGS 25343.30519810  .00001118  00000+0  35956-3 0  9995",
        "tle_line2": "2 30480  98.2239 358.2877 0166200 155.8754 224.9396 14.33592890986192"
      },
      "geometry": {
        "type": "Point",
        "coordinates": [
          81.9824291758493,
          -81.71082008300571
        ]
      }
    },
    {
      "type": "Feature",
      "properties": {
        "norad_id": 30481,
        "name": "FENGYUN 1C DEB",
        "group": "fengyun-1c-debris",
        "lat": -29.646201340671734,
        "lon": 6.146618134934755,
        "alt_km": 689.5873147342754,
        "timestamp": "2025-12-09T23:33:24.131324+00:00",
        "meta_object_name": "FENGYUN 1C DEB",
        "meta_object_id": "1999-025AGT",
        "meta_epoch": "2025-12-09T00:35:20.897952",
        "meta_mean_motion": 14.39011649,
        "meta_eccentricity": 0.02230769,
        "meta_inclination": 98.3367,
        "meta_ra_of_asc_node": 0.4284,
        "meta_arg_of_pericenter": 271.2114,
        "meta_mean_anomaly": 141.9453,
        "meta_ephemeris_type": 0,
        "meta_classification_type": "U",
        "meta_norad_cat_id": 30481,
        "meta_element_set_no": 999,
        "meta_rev_at_epoch": 98430,
        "meta_bstar": 0.00073601294,
        "meta_mean_motion_dot": 2.987e-05,
        "meta_mean_motion_ddot": 0,
        "tle_line1": "1 30481U 99025AGT 25343.02454743  .00002987  00000+0  73601-3 0  9992",
        "tle_line2": "2 30481  98.3367   0.4284 0223076 271.2114 141.9453 14.39011649984309"
      },
      "geometry": {
        "type": "Point",
        "coordinates": [
          6.146618134934755,
          -29.646201340671734
        ]
      }
    },
    {
      "type": "Feature",
      "properties": {
        "norad_id": 30486,
        "name": "FENGYUN 1C DEB",
        "group": "fengyun-1c-debris",
        "lat": 19.77120314898444,
        "lon": 14.173265728468536,
        "alt_km": 271.8850293718706,
        "timestamp": "2025-12-09T23:33:24.131335+00:00",
        "meta_object_name": "FENGYUN 1C DEB",
        "meta_object_id": "1999-025AGY",
        "meta_epoch": "2025-12-09T12:59:16.382976",
        "meta_mean_motion": 16.02573778,
        "meta_eccentricity": 0.00126608,
        "meta_inclination": 98.7943,
        "meta_ra_of_asc_node": 16.7829,
        "meta_arg_of_pericenter": 210.2626,
        "meta_mean_anomaly": 149.7919,
        "meta_ephemeris_type": 0,
        "meta_classification_type": "U",
        "meta_norad_cat_id": 30486,
        "meta_element_set_no": 999,
        "meta_rev_at_epoch": 1703,
        "meta_bstar": 0.0026524829,
        "meta_mean_motion_dot": 0.01539939,
        "meta_mean_motion_ddot": 0.0014426026,
        "tle_line1": "1 30486U 99025AGY 25343.54116184  .01539939  14426-2  26525-2 0  9993",
        "tle_line2": "2 30486  98.7943  16.7829 0012660 210.2626 149.7919 16.02573778 17037"
      },
      "geometry": {
        "type": "Point",
        "coordinates": [
          14.173265728468536,
          19.77120314898444
        ]
      }
    },
    {
      "type": "Feature",
      "properties": {
        "norad_id": 30489,
        "name": "FENGYUN 1C DEB",
        "group": "fengyun-1c-debris",
        "lat": 52.0083370634733,
        "lon": -11.986468919086875,
        "alt_km": 910.7153643420452,
        "timestamp": "2025-12-09T23:33:24.131345+00:00",
        "meta_object_name": "FENGYUN 1C DEB",
        "meta_object_id": "1999-025AHB",
        "meta_epoch": "2025-12-09T08:07:07.710816",
        "meta_mean_motion": 14.15814878,
        "meta_eccentricity": 0.0138933,
        "meta_inclination": 98.4687,
        "meta_ra_of_asc_node": 358.3986,
        "meta_arg_of_pericenter": 274.9155,
        "meta_mean_anomaly": 100.2117,
        "meta_ephemeris_type": 0,
        "meta_classification_type": "U",
        "meta_norad_cat_id": 30489,
        "meta_element_set_no": 999,
        "meta_rev_at_epoch": 97339,
        "meta_bstar": 0.00048832,
        "meta_mean_motion_dot": 1.011e-05,
        "meta_mean_motion_ddot": 0,
        "tle_line1": "1 30489U 99025AHB 25343.33828369  .00001011  00000+0  48832-3 0  9998",
        "tle_line2": "2 30489  98.4687 358.3986 0138933 274.9155 100.2117 14.15814878973390"
      },
      "geometry": {
        "type": "Point",
        "coordinates": [
          -11.986468919086875,
          52.0083370634733
        ]
      }
    },
    {
      "type": "Feature",
      "properties": {
        "norad_id": 30490,
        "name": "FENGYUN 1C DEB",
        "group": "fengyun-1c-debris",
        "lat": 1.9559959125067383,
        "lon": -64.39900003796457,
        "alt_km": 463.7117995980743,
        "timestamp": "2025-12-09T23:33:24.131355+00:00",
        "meta_object_name": "FENGYUN 1C DEB",
        "meta_object_id": "1999-025AHC",
        "meta_epoch": "2025-12-09T14:55:24.289824",
        "meta_mean_motion": 15.27501455,
        "meta_eccentricity": 0.00486012,
        "meta_inclination": 98.3322,
        "meta_ra_of_asc_node": 114.9126,
        "meta_arg_of_pericenter": 130.3874,
        "meta_mean_anomaly": 230.162,
        "meta_ephemeris_type": 0,
        "meta_classification_type": "U",
        "meta_norad_cat_id": 30490,
        "meta_element_set_no": 999,
        "meta_rev_at_epoch": 99448,
        "meta_bstar": 0.0054796238,
        "meta_mean_motion_dot": 0.00155431,
        "meta_mean_motion_ddot": 0,
        "tle_line1": "1 30490U 99025AHC 25343.62180891  .00155431  00000+0  54796-2 0  9994",
        "tle_line2": "2 30490  98.3322 114.9126 0048601 130.3874 230.1620 15.27501455994487"
      },
      "geometry": {
        "type": "Point",
        "coordinates": [
          -64.39900003796457,
          1.9559959125067383
        ]
      }
    },
    {
      "type": "Feature",
      "properties": {
        "norad_id": 30492,
        "name": "FENGYUN 1C DEB",
        "group": "fengyun-1c-debris",
        "lat": 11.637615025457091,
        "lon": -177.46538323153015,
        "alt_km": 729.2666492081862,
        "timestamp": "2025-12-09T23:33:24.131366+00:00",
        "meta_object_name": "FENGYUN 1C DEB",
        "meta_object_id": "1999-025AHE",
        "meta_epoch": "2025-12-09T06:15:16.723872",
        "meta_mean_motion": 14.51700262,
        "meta_eccentricity": 0.0095095,
        "meta_inclination": 102.3264,
        "meta_ra_of_asc_node": 358.9002,
        "meta_arg_of_pericenter": 72.4748,
        "meta_mean_anomaly": 288.6796,
        "meta_ephemeris_type": 0,
        "meta_classification_type": "U",
        "meta_norad_cat_id": 30492,
        "meta_element_set_no": 999,
        "meta_rev_at_epoch": 96844,
        "meta_bstar": 0.0040787,
        "meta_mean_motion_dot": 0.00017329,
        "meta_mean_motion_ddot": 0,
        "tle_line1": "1 30492U 99025AHE 25343.26061023  .00017329  00000+0  40787-2 0  9999",
        "tle_line2": "2 30492 102.3264 358.9002 0095095  72.4748 288.6796 14.51700262968440"
      },
      "geometry": {
        "type": "Point",
        "coordinates": [
          -177.46538323153015,
          11.637615025457091
        ]
      }
    },
    {
      "type": "Feature",
      "properties": {
        "norad_id": 30493,
        "name": "FENGYUN 1C DEB",
        "group": "fengyun-1c-debris",
        "lat": -5.087801396461855,
        "lon": 175.2806988736914,
        "alt_km": 1006.5594390446195,
        "timestamp": "2025-12-09T23:33:24.131376+00:00",
        "meta_object_name": "FENGYUN 1C DEB",
        "meta_object_id": "1999-025AHF",
        "meta_epoch": "2025-12-09T11:39:19.249344",
        "meta_mean_motion": 13.92920551,
        "meta_eccentricity": 0.01814705,
        "meta_inclination": 98.5708,
        "meta_ra_of_asc_node": 174.0519,
        "meta_arg_of_pericenter": 225.8144,
        "meta_mean_anomaly": 162.2809,
        "meta_ephemeris_type": 0,
        "meta_classification_type": "U",
        "meta_norad_cat_id": 30493,
        "meta_element_set_no": 999,
        "meta_rev_at_epoch": 95050,
        "meta_bstar": 0.0047211497,
        "meta_mean_motion_dot": 6.978e-05,
        "meta_mean_motion_ddot": 0,
        "tle_line1": "1 30493U 99025AHF 25343.48563946  .00006978  00000+0  47211-2 0  9992",
        "tle_line2": "2 30493  98.5708 174.0519 0181470 225.8144 162.2809 13.92920551950506"
      },
      "geometry": {
        "type": "Point",
        "coordinates": [
          175.2806988736914,
          -5.087801396461855
        ]
      }
    }
  ]
}